{"type": "FeatureCollection", "features": [ {"type": "Feature", "properties": {"norad_id": 37717, "name": "FENGYUN 1C DEB", "group": "fengyun-1c-debris", "lat": -25.620733781005484, "lon": -50.22268709754859, "alt_km": 610.780984506302, "timestamp": "2025-12-15T11:38:37.442958+00:00", "meta": {"OBJECT_NAME": "FENGYUN 1C DEB", "OBJECT_ID": "1999-025EMJ", "EPOCH": "2025-12-13T15:33:02.109312", "MEAN_MOTION": 14.94041675, "ECCENTRICITY": 0.0058628, "INCLINATION": 98.7254, "RA_OF_ASC_NODE": 303.5143, "ARG_OF_PERICENTER": 99.9726, "MEAN_ANOMALY": 78.8144, "EPHEMERIS_TYPE": 0, "CLASSIFICATION_TYPE": "U", "NORAD_CAT_ID": 37717, "ELEMENT_SET_NO": 999, "REV_AT_EPOCH": 89411, "BSTAR": 0.002780585, "MEAN_MOTION_DOT": 0.00030743, "MEAN_MOTION_DDOT": 0}, "tle": {"line1": "1 37717U 99025EMJ 25347.64794108  .00030743  00000+0  27806-2 0  9991", "line2": "2 37717  98.7254 303.5143 0058628  99.9726  78.8144 14.94041675894118"}}, "geometry": {"type": "Point", "coordinates": [-50.22268709754859, -25.620733781005484]}}, {"type": "Feature", "properties": {"norad_id": 37902, "name": "FENGYUN 1C DEB", "group": "fengyun-1c-debris", "lat": -73.43006906175292, "lon": -119.69236536822915, "alt_km": 837.2202903421739, "timestamp": "2025-12-15T11:38:37.442967+00:00", "meta": {"OBJECT_NAME": "FENGYUN 1C DEB", "OBJECT_ID": "1999-025ENB", "EPOCH": "2025-12-07T14:03:14.833440", "MEAN_MOTION": 13.52640367, "ECCENTRICITY": 0.03237878, "INCLINATION": 98.6837, "RA_OF_ASC_NODE": 202.4677, "ARG_OF_PERICENTER": 320.2654, "MEAN_ANOMALY": 37.5166, "EPHEMERIS_TYPE": 0, "CLASSIFICATION_TYPE": "U", "NORAD_CAT_ID": 37902, "ELEMENT_SET_NO": 999, "REV_AT_EPOCH": 62907, "BSTAR": 0.003775391, "MEAN_MOTION_DOT": 3.447e-05, "MEAN_MOTION_DDOT": 0}, "tle": {"line1": "1 37902U 99025ENB 25341.58558835  .00003447  00000+0  37754-2 0  9993", "line2": "2 37902  98.6837 202.4677 0323787 320.2654  37.5166 13.52640367629073"}}, "geometry": {"type": "Point", "coordinates": [-119.69236536822915, -73.43006906175292]}}, {"type": "Feature", "properties": {"norad_id": 37906, "name": "FENGYUN 1C DEB", "group": "fengyun-1c-debris", "lat": -16.794663687296662, "lon": -152.53908021815803, "alt_km": 1084.6200034047743, "timestamp": "2025-12-15T11:38:37.442977+00:00", "meta": {"OBJECT_NAME": "FENGYUN 1C DEB", "OBJECT_ID": "1999-025ENF", "EPOCH": "2025-12-10T09:03:53.057088", "MEAN_MOTION": 13.80782296, "ECCENTRICITY": 0.01623387, "INCLINATION": 99.6029, "RA_OF_ASC_NODE": 25.2001, "ARG_OF_PERICENTER": 34.7127, "MEAN_ANOMALY": 347.1535, "EPHEMERIS_TYPE": 0, "CLASSIFICATION_TYPE": "U", "NORAD_CAT_ID": 37906, "ELEMENT_SET_NO": 999, "REV_AT_EPOCH": 59423, "BSTAR": 0.00082923409, "MEAN_MOTION_DOT": 9.18e-06, "MEAN_MOTION_DDOT": 0}, "tle": {"line1": "1 37906U 99025ENF 25344.37769742  .00000918  00000+0  82923-3 0  9997", "line2": "2 37906  99.6029  25.2001 0162338  34.7127 347.1535 13.80782296594236"}}, "geometry": {"type": "Point", "coordinates": [-152.53908021815803, -16.794663687296662]}}, {"type": "Feature", "properties": {"norad_id": 37907, "name": "FENGYUN 1C DEB", "group": "fengyun-1c-debris", "lat": -21.91132598773974, "lon": -81.13792663764939, "alt_km": 776.6609146472647, "timestamp": "2025-12-15T11:38:37.442988+00:00", "meta": {"OBJECT_NAME": "FENGYUN 1C DEB", "OBJECT_ID": "1999-025ENG", "EPOCH": "2025-12-11T13:55:19.191936", "MEAN_MOTION": 14.23531669, "ECCENTRICITY": 0.00636609, "INCLINATION": 99.0808, "RA_OF_ASC_NODE": 98.5214, "ARG_OF_PERICENTER": 188.9882, "MEAN_ANOMALY": 171.016, "EPHEMERIS_TYPE": 0, "CLASSIFICATION_TYPE": "U", "NORAD_CAT_ID": 37907, "ELEMENT_SET_NO": 999, "REV_AT_EPOCH": 83256, "BSTAR": 0.0046875695, "MEAN_MOTION_DOT": 0.0001086, "MEAN_MOTION_DDOT": 0}, "tle": {"line1": "1 37907U 99025ENG 25345.58008324  .00010860  00000+0  46876-2 0  9997", "line2": "2 37907  99.0808  98.5214 0063660 188.9882 171.0160 14.23531669832566"}}, "geometry": {"type": "Point", "coordinates": [-81.13792663764939, -21.91132598773974]}}, {"type": "Feature", "properties": {"norad_id": 37908, "name": "FENGYUN 1C DEB", "group": "fengyun-1c-debris", "lat": 71.40016484536443, "lon": -129.83077629725827, "alt_km": 723.8515359100002, "timestamp": "2025-12-15T11:38:37.442998+00:00", "meta": {"OBJECT_NAME": "FENGYUN 1C DEB", "OBJECT_ID": "1999-025ENH", "EPOCH": "2025-12-06T19:52:32.356992", "MEAN_MOTION": 14.36573191, "ECCENTRICITY": 0.00744593, "INCLINATION": 99.1512, "RA_OF_ASC_NODE": 12.3562, "ARG_OF_PERICENTER": 174.8209, "MEAN_ANOMALY": 185.3763, "EPHEMERIS_TYPE": 0, "CLASSIFICATION_TYPE": "U", "NORAD_CAT_ID": 37908, "ELEMENT_SET_NO": 999, "REV_AT_EPOCH": 63976, "BSTAR": 0.0009644739, "MEAN_MOTION_DOT": 2.877e-05, "MEAN_MOTION_DDOT": 0}, "tle": {"line1": "1 37908U 99025ENH 25340.82815228  .00002877  00000+0  96447-3 0  9998", "line2": "2 37908  99.1512  12.3562 0074459 174.8209 185.3763 14.36573191639769"}}, "geometry": {"type": "Point", "coordinates": [-129.83077629725827, 71.40016484536443]}}, {"type": "Feature", "properties": {"norad_id": 37912, "name": "FENGYUN 1C DEB", "group": "fengyun-1c-debris", "lat": -25.889100869878163, "lon": 133.6557144989149, "alt_km": 919.254783058981, "timestamp": "2025-12-15T11:38:37.443008+00:00", "meta": {"OBJECT_NAME": "FENGYUN 1C DEB", "OBJECT_ID": "1999-025ENM", "EPOCH": "2025-12-13T09:20:26.111040", "MEAN_MOTION": 14.11501347, "ECCENTRICITY": 0.00918324, "INCLINATION": 99.229, "RA_OF_ASC_NODE": 316.0271, "ARG_OF_PERICENTER": 58.1051, "MEAN_ANOMALY": 302.9013, "EPHEMERIS_TYPE": 0, "CLASSIFICATION_TYPE": "U", "NORAD_CAT_ID": 37912, "ELEMENT_SET_NO": 999, "REV_AT_EPOCH": 77297, "BSTAR": 0.0030217833, "MEAN_MOTION_DOT": 5.659e-05, "MEAN_MOTION_DDOT": 0}, "tle": {"line1": "1 37912U 99025ENM 25347.38919110  .00005659  00000+0  30218-2 0  9990", "line2": "2 37912  99.2290 316.0271 0091832  58.1051 302.9013 14.11501347772975"}}, "geometry": {"type": "Point", "coordinates": [133.6557144989149, -25.889100869878163]}}, {"type": "Feature", "properties": {"norad_id": 37918, "name": "FENGYUN 1C DEB", "group": "fengyun-1c-debris", "lat": 67.96546203857349, "lon": 142.1964779223128, "alt_km": 808.4748639247355, "timestamp": "2025-12-15T11:38:37.443018+00:00", "meta": {"OBJECT_NAME": "FENGYUN 1C DEB", "OBJECT_ID": "1999-025ENT", "EPOCH": "2025-12-14T20:03:40.724928", "MEAN_MOTION": 14.34395718, "ECCENTRICITY": 0.00549647, "INCLINATION": 99.0275, "RA_OF_ASC_NODE": 298.3895, "ARG_OF_PERICENTER": 277.4933, "MEAN_ANOMALY": 82.0008, "EPHEMERIS_TYPE": 0, "CLASSIFICATION_TYPE": "U", "NORAD_CAT_ID": 37918, "ELEMENT_SET_NO": 999, "REV_AT_EPOCH": 3572, "BSTAR": 0.00072304764, "MEAN_MOTION_DOT": 2.021e-05, "MEAN_MOTION_DDOT": 0}, "tle": {"line1": "1 37918U 99025ENT 25348.83588802  .00002021  00000+0  72305-3 0  9991", "line2": "2 37918  99.0275 298.3895 0054964 277.4933  82.0008 14.34395718 35729"}}, "geometry": {"type": "Point", "coordinates": [142.1964779223128, 67.96546203857349]}}, {"type": "Feature", "properties": {"norad_id": 37919, "name": "FENGYUN 1C DEB", "group": "fengyun-1c-debris", "lat": -28.26968077811977, "lon": 102.608258862398, "alt_km": 841.7889715065239, "timestamp": "2025-12-15T11:38:37.443027+00:00", "meta": {"OBJECT_NAME": "FENGYUN 1C DEB", "OBJECT_ID": "1999-025ENU", "EPOCH": "2025-12-12T06:55:51.957984", "MEAN_MOTION": 14.2676163, "ECCENTRICITY": 0.00496798, "INCLINATION": 99.0576, "RA_OF_ASC_NODE": 284.2227, "ARG_OF_PERICENTER": 17.6806, "MEAN_ANOMALY": 342.6088, "EPHEMERIS_TYPE": 0, "CLASSIFICATION_TYPE": "U", "NORAD_CAT_ID": 37919, "ELEMENT_SET_NO": 999, "REV_AT_EPOCH": 64902, "BSTAR": 0.00082874062, "MEAN_MOTION_DOT": 1.986e-05, "MEAN_MOTION_DDOT": 0}, "tle": {"line1": "1 37919U 99025ENU 25346.28879581  .00001986  00000+0  82874-3 0  9997", "line2": "2 37919  99.0576 284.2227 0049679  17.6806 342.6088 14.26761630649025"}}, "geometry": {"type": "Point", "coordinates": [102.608258862398, -28.26968077811977]}}, {"type": "Feature", "properties": {"norad_id": 37921, "name": "FENGYUN 1C DEB", "group": "fengyun-1c-debris", "lat": -11.190230291682505, "lon": -151.2983057132043, "alt_km": 925.0440119589084, "timestamp": "2025-12-15T11:38:37.443037+00:00", "meta": {"OBJECT_NAME": "FENGYUN 1C DEB", "OBJECT_ID": "1999-025ENW", "EPOCH": "2025-12-12T08:43:43.070016", "MEAN_MOTION": 13.95155654, "ECCENTRICITY": 0.00843507, "INCLINATION": 99.0222, "RA_OF_ASC_NODE": 27.4497, "ARG_OF_PERICENTER": 99.7165, "MEAN_ANOMALY": 261.3537, "EPHEMERIS_TYPE": 0, "CLASSIFICATION_TYPE": "U", "NORAD_CAT_ID": 37921, "ELEMENT_SET_NO": 999, "REV_AT_EPOCH": 63142, "BSTAR": 0.00015923502, "MEAN_MOTION_DOT": 1.79e-06, "MEAN_MOTION_DDOT": 0}, "tle": {"line1": "1 37921U 99025ENW 25346.36369294  .00000179  00000+0  15924-3 0  9999", "line2": "2 37921  99.0222  27.4497 0084350  99.7165 261.3537 13.95155654631425"}}, "geometry": {"type": "Point", "coordinates": [-151.2983057132043, -11.190230291682505]}}, {"type": "Feature", "properties": {"norad_id": 37925, "name": "FENGYUN 1C DEB", "group": "fengyun-1c-debris", "lat": 79.45612902668302, "lon": 159.70430366128838, "alt_km": 634.1751546497817, "timestamp": "2025-12-15T11:38:37.443047+00:00", "meta": {"OBJECT_NAME": "FENGYUN 1C DEB", "OBJECT_ID": "1999-025EPA", "EPOCH": "2025-12-14T09:18:34.175520", "MEAN_MOTION": 14.80339086, "ECCENTRICITY": 0.00565241, "INCLINATION": 99.0864, "RA_OF_ASC_NODE": 217.7592, "ARG_OF_PERICENTER": 337.9668, "MEAN_ANOMALY": 21.9111, "EPHEMERIS_TYPE": 0, "CLASSIFICATION_TYPE": "U", "NORAD_CAT_ID": 37925, "ELEMENT_SET_NO": 999, "REV_AT_EPOCH": 65707, "BSTAR": 0.001911367, "MEAN_MOTION_DOT": 0.00014939, "MEAN_MOTION_DDOT": 0}, "tle": {"line1": "1 37925U 99025EPA 25348.38789555  .00014939  00000+0  19114-2 0  9996", "line2": "2 37925  99.0864 217.7592 0056524 337.9668  21.9111 14.80339086657073"}}, "geometry": {"type": "Point", "coordinates": [159.70430366128838, 79.45612902668302]}}]}